AQUA                    
1 27424U 02022A   26114.19528103  .00000603  00000+0  12992-3 0  9992
2 27424  98.4242  82.4155 0002007  97.9758 318.4045 14.62069895275389
CZ-4B R/B               
1 27432U 02024C   26114.12144507  .00000016  00000+0  31189-4 0  9996
2 27432  98.8749 167.2791 0049122 253.5634 125.4611 14.14555266235665
MIDORI II (ADEOS-II)    
1 27597U 02056A   26113.60620635  .00000208  00000+0  99346-4 0  9998
2 27597  98.7838  72.4165 0000694 145.7502 214.3725 14.29316826216716
H-2A R/B                
1 27601U 02056E   26113.92631574  .00000250  00000+0  10201-3 0  9992
2 27601  98.3274  72.5919 0070863  27.7688  20.7794 14.33791523220591
CZ-4B R/B               
1 28059U 03049C   26113.97600676  .00000274  00000+0  74150-4 0  9997
2 28059  98.6899 110.6691 0049339  93.4510 267.2331 14.55057969193186
CZ-2C R/B               
1 28222U 04012C   26114.12992727  .00052339  00000+0  43134-3 0  9995
2 28222  97.7135 183.9060 0013854 142.0315 218.1926 15.70092370211393
SL-16 R/B               
1 28353U 04021B   26114.13726170 -.00000204  00000+0 -81455-4 0  9993
2 28353  70.9988 137.1206 0006806 311.3205  48.7331 14.14604817129261
CZ-4B R/B               
1 28415U 04035C   26114.05240207  .00005661  00000+0  19586-3 0  9995
2 28415  97.3426 147.7569 0032209 164.4795 195.7441 15.29786631186840
CZ-2C R/B               
1 28480U 04046B   26114.20209837  .00000121  00000+0  60126-4 0  9993
2 28480  98.1968  26.3489 0139924  20.7939 339.8858 14.27009510114992
ARIANE 5 R/B            
1 28499U 04049H   26113.70106048  .00000685  00000+0  81952-4 0  9995
2 28499  98.2687 283.8628 0083539 204.3987 155.3263 14.85348273152471
CZ-2D R/B               
1 28738U 05024B   26113.99421382  .00034358  00000+0  36186-3 0  9999
2 28738  97.3549 130.9380 0004493 174.8423 185.2883 15.64198157146856
ALOS (DAICHI)           
1 28931U 06002A   26113.63578078  .00000791  00000+0  14039-3 0  9994
2 28931  98.1284  69.3917 0001893 106.3471 253.7943 14.69932587 80088
